var faja_poligono={
"type": "FeatureCollection",
"name": "faja_poligono",
"crs": { "type": "name", "properties": { "name": "urn:ogc:def:crs:OGC:1.3:CRS84" } },
"features": [
{ "type": "Feature", "properties": { "id_poligono_faja_marginal": 1, "id_faja_marginal": 100, "zona": "19", "datum": "WGS 84(UTM)", "nombre_faja_marginal": "FAJA MARGINAL QUEBRADA RODRIGUEZ", "margen": "DERECHA" }, "geometry": { "type": "Polygon", "coordinates": [ [ [ -69.12087371399997, -11.930994497999961 ], [ -69.120894623999959, -11.931022005999978 ], [ -69.120980659999987, -11.93106288499996 ], [ -69.121038251999948, -11.93107075599994 ], [ -69.121093633999976, -11.931026226999961 ], [ -69.12115049099998, -11.93102117799998 ], [ -69.121224131999952, -11.931054165999967 ], [ -69.121275186999981, -11.931115876999968 ], [ -69.121311645999981, -11.931139548999965 ], [ -69.121346641999935, -11.93115245499996 ], [ -69.121401313999968, -11.931150995999928 ], [ -69.121430468999961, -11.931141650999962 ], [ -69.121455973999957, -11.931122976999973 ], [ -69.121568213999979, -11.931073398999956 ], [ -69.121609761999935, -11.931066919999978 ], [ -69.121638192999967, -11.931070496999951 ], [ -69.12168120299998, -11.931072631999939 ], [ -69.121725668999943, -11.931069023999953 ], [ -69.121749717999933, -11.931053220999956 ], [ -69.121773773999962, -11.931053928999972 ], [ -69.121807306999983, -11.931055349999951 ], [ -69.12183792999997, -11.93106897499996 ], [ -69.121872207999957, -11.931106286999977 ], [ -69.121886064999956, -11.931120636999935 ], [ -69.121948040999939, -11.931150040999967 ], [ -69.12204122199995, -11.931204881999975 ], [ -69.122066894999932, -11.931221771999958 ], [ -69.122085125999945, -11.931236837999961 ], [ -69.122139076999986, -11.931253324999943 ], [ -69.122346845999971, -11.931281947999935 ], [ -69.122562633999962, -11.93131200199997 ], [ -69.122626791999949, -11.931331354999941 ], [ -69.122688278999988, -11.931480127999976 ], [ -69.122757967999974, -11.931567154999982 ], [ -69.122842798999955, -11.931628371999977 ], [ -69.122824967999975, -11.931789503999937 ], [ -69.122803887999964, -11.931903889999944 ], [ -69.122811787999979, -11.932050532999938 ], [ -69.122839544999977, -11.93241924299997 ], [ -69.122821416999955, -11.932634596999947 ], [ -69.122717355999953, -11.932792322999944 ], [ -69.122657954999966, -11.933085459999972 ], [ -69.122558247999962, -11.93341487899994 ], [ -69.122512090999976, -11.933720437999966 ], [ -69.122393657999964, -11.933777316999965 ], [ -69.122206116999962, -11.933931480999945 ], [ -69.12206350699995, -11.934207689999937 ], [ -69.121963337999944, -11.934354287999952 ], [ -69.121844806999945, -11.934518816999969 ], [ -69.121735680999961, -11.93468637999996 ], [ -69.121626383999967, -11.93479709099995 ], [ -69.121532283999954, -11.934931722999977 ], [ -69.121356606999939, -11.935002839999981 ], [ -69.121261886999946, -11.935109117999957 ], [ -69.121313750999946, -11.935293719999947 ], [ -69.121332041999949, -11.935443257999964 ], [ -69.121456683999952, -11.935685468999964 ], [ -69.121619066999983, -11.935881483999935 ], [ -69.121622552999952, -11.936233813999934 ], [ -69.121716786999968, -11.936398273999941 ], [ -69.121896116999949, -11.936670369999945 ], [ -69.121990355999969, -11.936846793999962 ], [ -69.121984426999973, -11.937172806999968 ], [ -69.12209268099997, -11.937444773999971 ], [ -69.122164568999949, -11.938039296999932 ], [ -69.122000979999939, -11.938172613999939 ], [ -69.121918776999962, -11.938221932999966 ], [ -69.121835224999984, -11.938308107999944 ], [ -69.121841141999937, -11.938499523999951 ], [ -69.121821829999988, -11.938784746999943 ], [ -69.121889946999943, -11.93895890899995 ], [ -69.121926974999951, -11.939165625999976 ], [ -69.121853157999965, -11.939286251999931 ], [ -69.121754069999952, -11.939408802999935 ], [ -69.121845468999936, -11.939481502999968 ], [ -69.121896052999944, -11.939573361999976 ], [ -69.12188833099998, -11.939693958999953 ], [ -69.121948158999942, -11.939892806999978 ], [ -69.12188086499998, -11.940386899999964 ], [ -69.121898048999981, -11.940557733999981 ], [ -69.121871410999972, -11.940763520999951 ], [ -69.121854435999978, -11.940842488999976 ], [ -69.121872726999982, -11.940989633999948 ], [ -69.121892217999971, -11.941104476999953 ], [ -69.121886208999967, -11.941252231999954 ], [ -69.121822509999959, -11.941449659999932 ], [ -69.121740559999978, -11.941587277999929 ], [ -69.121661716999938, -11.94188341399996 ], [ -69.12152813299997, -11.94203002699993 ], [ -69.121509959999969, -11.94214668099994 ], [ -69.121549509999966, -11.94228723699996 ], [ -69.121631568999987, -11.94239188399996 ], [ -69.121693422999954, -11.942282116999934 ], [ -69.121695715999977, -11.94212592599996 ], [ -69.121993851999946, -11.941236712999967 ], [ -69.12191633499998, -11.94077696599993 ], [ -69.122111348999965, -11.93989856099995 ], [ -69.121981140999935, -11.939532249999957 ], [ -69.121897520999937, -11.939469117999977 ], [ -69.122060707999935, -11.939229772999965 ], [ -69.121906011999954, -11.938738598999976 ], [ -69.121942052999941, -11.938369562999981 ], [ -69.122345030999952, -11.938138152999954 ], [ -69.122186243999977, -11.937394007999956 ], [ -69.122110332999966, -11.937177737999946 ], [ -69.122102495999968, -11.936842445999957 ], [ -69.121737738999968, -11.936130790999925 ], [ -69.121754019999969, -11.935904953999966 ], [ -69.121310453999968, -11.935127983999962 ], [ -69.122032277999949, -11.934667059999981 ], [ -69.122099080999988, -11.934513680999942 ], [ -69.122255516999985, -11.934280785999931 ], [ -69.122375172999966, -11.933873726999934 ], [ -69.12273969599994, -11.93375035899993 ], [ -69.122782944999983, -11.933464045999926 ], [ -69.122881028999984, -11.933139984999968 ], [ -69.122933892999981, -11.932879110999977 ], [ -69.123045453999964, -11.932710018999956 ], [ -69.123069845999964, -11.932420229999934 ], [ -69.123043965999955, -11.931892484999935 ], [ -69.122948640999937, -11.931513218999953 ], [ -69.12277282499997, -11.931432000999962 ], [ -69.122643473999972, -11.931252761999929 ], [ -69.122146867999959, -11.931127573999959 ], [ -69.121819130999938, -11.930981303999943 ], [ -69.121020176999934, -11.930970163999973 ], [ -69.120781384999987, -11.930769821999945 ], [ -69.120717386999956, -11.930823278999981 ], [ -69.120730768999977, -11.930842380999934 ], [ -69.120778926999947, -11.930945726999937 ], [ -69.120802265999941, -11.930972993999944 ], [ -69.12087371399997, -11.930994497999961 ] ] ] } },
{ "type": "Feature", "properties": { "id_poligono_faja_marginal": 2, "id_faja_marginal": 101, "zona": "19", "datum": "WGS 84(UTM)", "nombre_faja_marginal": "FAJA MARGINAL QUEBRADA RODRIGUEZ", "margen": "IZQUIERDA" }, "geometry": { "type": "Polygon", "coordinates": [ [ [ -69.120374247999962, -11.931049205999955 ], [ -69.120412672999976, -11.931242889999965 ], [ -69.121098220999954, -11.931699262999928 ], [ -69.121476298999937, -11.931819650999955 ], [ -69.121881451999968, -11.93225433799995 ], [ -69.122037767999984, -11.932510369999932 ], [ -69.121877480999956, -11.933030970999937 ], [ -69.121709949999968, -11.93332774299995 ], [ -69.121470151999972, -11.933437202999926 ], [ -69.121180356999957, -11.933617971999979 ], [ -69.121097314999986, -11.933755828999949 ], [ -69.121148758999936, -11.933952931999954 ], [ -69.121226818999958, -11.934278826999957 ], [ -69.121147216999987, -11.934502820999967 ], [ -69.120734651999953, -11.934914899999967 ], [ -69.120670462999954, -11.935211813999956 ], [ -69.120699585999944, -11.935441974999947 ], [ -69.120755368999937, -11.935710768999968 ], [ -69.12078622599995, -11.936019688999977 ], [ -69.120835994999936, -11.936268469999959 ], [ -69.120915681999975, -11.936433098999942 ], [ -69.120976150999979, -11.937259386999926 ], [ -69.121101665999959, -11.937638506999974 ], [ -69.121120833999953, -11.937794620999966 ], [ -69.121090721999963, -11.938223148999953 ], [ -69.12104295499995, -11.938296052999931 ], [ -69.121219080999936, -11.93873911299994 ], [ -69.121377590999941, -11.93891036499997 ], [ -69.121618724999962, -11.939092108999944 ], [ -69.121539064999979, -11.939188809999962 ], [ -69.121423407999941, -11.939209915999982 ], [ -69.121322344999953, -11.93926259999995 ], [ -69.121315740999933, -11.939713394999956 ], [ -69.12123799799997, -11.94011476999998 ], [ -69.121341543999961, -11.940724873999955 ], [ -69.121162699999957, -11.941373932999966 ], [ -69.12088945499994, -11.941550156999938 ], [ -69.12075579499998, -11.941846123999937 ], [ -69.120726956999988, -11.942057353999928 ], [ -69.120727083999952, -11.942342895999957 ], [ -69.120793468999977, -11.942677874999958 ], [ -69.120842222999954, -11.943007144999967 ], [ -69.121056124999939, -11.942948092999927 ], [ -69.120983115999934, -11.942702868999959 ], [ -69.120885738999959, -11.942302126999948 ], [ -69.120951039999966, -11.941865546999963 ], [ -69.120990390999964, -11.941619474999982 ], [ -69.121219532999987, -11.941560233999951 ], [ -69.121297679999941, -11.94138365799995 ], [ -69.121482952999941, -11.940887769999961 ], [ -69.121500407999974, -11.940795880999929 ], [ -69.121472676999986, -11.940729852999937 ], [ -69.121443438999961, -11.940553281999939 ], [ -69.121426576999966, -11.940425421999976 ], [ -69.121426536999934, -11.940335454999968 ], [ -69.121393430999944, -11.940203389999965 ], [ -69.121355426999969, -11.940096338999979 ], [ -69.121383626999943, -11.940013888999943 ], [ -69.121412542999963, -11.939928789999954 ], [ -69.121412501999941, -11.939836908999951 ], [ -69.121405178999964, -11.939763693999964 ], [ -69.121405065999966, -11.939508149999938 ], [ -69.121374124999988, -11.939422461999982 ], [ -69.121393362999981, -11.939305051999952 ], [ -69.121500028999947, -11.939244797999947 ], [ -69.121568254999943, -11.939274068999964 ], [ -69.121601777999956, -11.939249648999976 ], [ -69.121696496999959, -11.939137627999969 ], [ -69.121707227999934, -11.939110625999945 ], [ -69.12164256799997, -11.939059448999956 ], [ -69.121407266999938, -11.938878659999943 ], [ -69.121382892999975, -11.938827663999973 ], [ -69.121314355999971, -11.938685366999948 ], [ -69.121261811999943, -11.938556180999967 ], [ -69.121196146999978, -11.938431308999952 ], [ -69.121152369999947, -11.938346623999962 ], [ -69.121121724999966, -11.938284904999932 ], [ -69.121187288999977, -11.938182945999927 ], [ -69.121210567999981, -11.938072390999935 ], [ -69.121156439999936, -11.937961476999931 ], [ -69.121159382999963, -11.937838601999943 ], [ -69.121183465999934, -11.937701968999932 ], [ -69.121163808999938, -11.937541874999965 ], [ -69.121054136999987, -11.937251401999958 ], [ -69.121043798999949, -11.936537646999966 ], [ -69.120908630999963, -11.936142074999964 ], [ -69.120862951999982, -11.936021770999957 ], [ -69.120859002999964, -11.935883950999937 ], [ -69.120849203999967, -11.935704020999935 ], [ -69.120825809999985, -11.935554723999928 ], [ -69.120804379999981, -11.935448495999935 ], [ -69.120767418999947, -11.93538917199993 ], [ -69.120721051999965, -11.935317072999965 ], [ -69.120713862999935, -11.93526438899994 ], [ -69.120721472999946, -11.935192962999963 ], [ -69.120768111999951, -11.935135203999948 ], [ -69.120792879999954, -11.935095473999979 ], [ -69.120800866999957, -11.935064060999935 ], [ -69.120925614999976, -11.934857915999942 ], [ -69.120962533999943, -11.934821529999965 ], [ -69.121004307999954, -11.934775570999932 ], [ -69.121183837999979, -11.93456813499995 ], [ -69.121246202999941, -11.934492644999978 ], [ -69.121300732999941, -11.93439443099993 ], [ -69.121319024999934, -11.934320336999974 ], [ -69.121255390999977, -11.934067122999977 ], [ -69.121258270999988, -11.933986725999944 ], [ -69.121366093999939, -11.933840243999953 ], [ -69.121427291999964, -11.933758385999965 ], [ -69.121520548999968, -11.933642057999975 ], [ -69.121606539999959, -11.933578852999972 ], [ -69.121705653999982, -11.933519948999958 ], [ -69.121814989999962, -11.933496930999979 ], [ -69.121914102999938, -11.933435154999927 ], [ -69.121973833999959, -11.933333198999946 ], [ -69.122001508999972, -11.933275760999948 ], [ -69.122036478999973, -11.933228369999938 ], [ -69.122032081999976, -11.933178123999937 ], [ -69.122051007999971, -11.933114946999979 ], [ -69.122062626999934, -11.933015882999939 ], [ -69.122042175999979, -11.932928316999948 ], [ -69.122077138999941, -11.93286513399994 ], [ -69.122138350999933, -11.932816294999952 ], [ -69.122182014999964, -11.932649741999967 ], [ -69.122161572999971, -11.932582274999959 ], [ -69.122181922999971, -11.932444444999931 ], [ -69.122107523999944, -11.932346852999956 ], [ -69.122095844999933, -11.932312402999969 ], [ -69.121852231999981, -11.932054778999941 ], [ -69.121603043999983, -11.931779721999931 ], [ -69.121391199999948, -11.931712887999936 ], [ -69.121307588999969, -11.931664111999964 ], [ -69.121232713999973, -11.931585662999964 ], [ -69.121176323999975, -11.93155027399996 ], [ -69.121128187999943, -11.931475660999979 ], [ -69.121105692999947, -11.93143439499994 ], [ -69.121081386999947, -11.931418254999926 ], [ -69.121065590999933, -11.931413475999932 ], [ -69.121041290999983, -11.931412289999969 ], [ -69.121004224999979, -11.931396835999976 ], [ -69.120969595999952, -11.931381813999963 ], [ -69.12092645599995, -11.93136149399993 ], [ -69.120849293999981, -11.931333411999958 ], [ -69.120801903999961, -11.93131847799998 ], [ -69.120761191999975, -11.931290978999982 ], [ -69.120752665999987, -11.931244921999962 ], [ -69.120756895999989, -11.931194074999951 ], [ -69.120761739999978, -11.931158779999976 ], [ -69.120741682999949, -11.931134262999933 ], [ -69.12070461999997, -11.931117529999938 ], [ -69.120692470999984, -11.931120525999972 ], [ -69.120670002999987, -11.931138480999948 ], [ -69.120650566999984, -11.931146265999928 ], [ -69.120615879999946, -11.931148532999941 ], [ -69.120585748999986, -11.931146152999929 ], [ -69.120567521999988, -11.931140896999977 ], [ -69.120544432999964, -11.931130377999978 ], [ -69.12051332599998, -11.931118666999964 ], [ -69.120501899999965, -11.93110838299998 ], [ -69.120478553999988, -11.931064127999946 ], [ -69.12047318599997, -11.931014839999932 ], [ -69.120476344999986, -11.930996063999942 ], [ -69.120374247999962, -11.931049205999955 ] ] ] } }
]
}
