{
"type": "FeatureCollection",
"name": "Prueba1",
"crs": { "type": "name", "properties": { "name": "urn:ogc:def:crs:EPSG::32719" } },
"features": [
{ "type": "Feature", "properties": { "OBJECTID": 2808, "NOMBRE": "PONALILLO", "CODIGO": null, "PROVINCIA": "TAHUAMANU", "ESTADO_CAT": null, "ESTADO_SIC": null, "AREA_HA": 1992.56842708, "PERIMETRO_": 32522.4295891, "ELABORADO": null, "FECHA": null, "OBSERVACIO": null, "USER_CREAT": null, "FECHA_CREA": null, "USER_MODIF": "SDE", "FECHA_MODI": "2022-02-22", "SHAPE_STAr": 19698992.953400001, "SHAPE_STLe": 33221.559217800001, "AREA_HA_1": 1992.56842708, "PERIMETRO": 32522.4295891, "DISTANCE": null }, "geometry": { "type": "MultiPolygon", "coordinates": [ [ [ [ 448578.319900006055832, 8748343.037500008940697 ], [ 448570.081900005228817, 8748036.420000003650784 ], [ 448579.111500007100403, 8747602.304400008171797 ], [ 447961.576000004075468, 8747600.244700007140636 ], [ 447972.593000007793307, 8747389.440900005400181 ], [ 447978.926100006327033, 8747216.280500000342727 ], [ 448753.032700007781386, 8747236.137100018560886 ], [ 449222.22679999936372, 8747319.812800008803606 ], [ 449244.392684523016214, 8747320.25269384868443 ], [ 449247.221205566078424, 8747325.701774965971708 ], [ 449251.46781400218606, 8747331.750783875584602 ], [ 449256.011443872004747, 8747338.219572184607387 ], [ 449259.829563939012587, 8747344.108666200190783 ], [ 449264.678380601108074, 8747351.147298477590084 ], [ 449269.271529478020966, 8747357.9763114284724 ], [ 449273.361626795493066, 8747365.964801583439112 ], [ 449276.322054906748235, 8747373.693515241146088 ], [ 449278.532058590091765, 8747380.452381655573845 ], [ 449280.338017265312374, 8747386.981157468631864 ], [ 449281.583205223083496, 8747393.50008262693882 ], [ 449282.143840071745217, 8747399.689172510057688 ], [ 449282.110956914722919, 8747405.258087635040283 ], [ 449281.84712796844542, 8747410.167266592383385 ], [ 449281.475996004417539, 8747412.906983483582735 ], [ 449281.747963166795671, 8747414.736463902518153 ], [ 449282.622176540084183, 8747418.146048089489341 ], [ 449283.520994933322072, 8747421.865396393463016 ], [ 449284.461186158470809, 8747425.164730226621032 ], [ 449285.417660928331316, 8747427.764361498877406 ], [ 449286.75358316116035, 8747430.143886605277658 ], [ 449288.73273974750191, 8747433.103526158258319 ], [ 449291.313702933490276, 8747436.892674719914794 ], [ 449293.713307897560298, 8747441.43190660327673 ], [ 449295.510913186706603, 8747445.811169976368546 ], [ 449297.127212370745838, 8747449.880419397726655 ], [ 449299.007459602318704, 8747454.169804872944951 ], [ 449301.09365320391953, 8747458.989069439470768 ], [ 449302.990329472348094, 8747463.378220831975341 ], [ 449304.697256159968674, 8747467.277436809614301 ], [ 449306.536388842388988, 8747471.346819428727031 ], [ 449308.548362958244979, 8747475.766009731218219 ], [ 449310.626465974375606, 8747480.665318030864 ], [ 449312.57241125125438, 8747485.844395495951176 ], [ 449314.427970408461988, 8747491.043564358726144 ], [ 449316.233912811614573, 8747496.632436392828822 ], [ 449317.932431883178651, 8747502.181550785899162 ], [ 449319.886965989135206, 8747507.930552858859301 ], [ 449322.006046053022146, 8747514.099565383046865 ], [ 449324.166685220785439, 8747520.348480146378279 ], [ 449326.508685190230608, 8747526.737341674044728 ], [ 449329.023718348704278, 8747533.356256522238255 ], [ 449331.563557736575603, 8747540.365103518590331 ], [ 449334.012613888829947, 8747547.643723053857684 ], [ 449336.362897399812937, 8747554.932579278945923 ], [ 449338.679958735592663, 8747561.841220205649734 ], [ 449341.071459445171058, 8747568.740138068795204 ], [ 449343.380410951562226, 8747575.808991014957428 ], [ 449345.656394323334098, 8747582.817858759313822 ], [ 449347.907485041767359, 8747589.766533013433218 ], [ 449350.092747231945395, 8747596.595347877591848 ], [ 449352.39360502269119, 8747603.404221553355455 ], [ 449354.908696038648486, 8747610.542953988537192 ], [ 449357.357774874195457, 8747617.951609019190073 ], [ 449359.707960424013436, 8747625.240462612360716 ], [ 449361.909723727032542, 8747631.989355737343431 ], [ 449364.078387014567852, 8747638.418076898902655 ], [ 449364.787640190683305, 8747640.417832834646106 ], [ 449672.058620077557862, 8747667.053270155563951 ], [ 449614.813334650360048, 8748075.313433842733502 ], [ 449563.488810550421476, 8748362.564126959070563 ], [ 449493.33808405417949, 8748354.465530155226588 ], [ 449493.742120357230306, 8748357.045000452548265 ], [ 449494.187377272173762, 8748359.854570087045431 ], [ 449494.781169187277555, 8748363.34408881329 ], [ 449495.432539452798665, 8748367.203466529026628 ], [ 449496.669648627750576, 8748374.332192365080118 ], [ 449498.294057246297598, 8748381.800891442224383 ], [ 449499.687659005634487, 8748389.409545915201306 ], [ 449500.92458273191005, 8748397.138259015977383 ], [ 449502.10383871756494, 8748404.966841705143452 ], [ 449503.349103265441954, 8748412.735485918819904 ], [ 449504.594274988397956, 8748420.494288563728333 ], [ 449506.020722212269902, 8748428.31286864541471 ], [ 449507.595833029597998, 8748436.111669948324561 ], [ 449509.25331855006516, 8748443.990216761827469 ], [ 449511.257171330042183, 8748452.008970562368631 ], [ 449513.236269629560411, 8748460.017401309683919 ], [ 449515.281369812786579, 8748467.626202566549182 ], [ 449517.375946661457419, 8748474.864982634782791 ], [ 449519.157017068937421, 8748482.093756023794413 ], [ 449520.393915557302535, 8748488.742577876895666 ], [ 449521.647535899654031, 8748495.031499760225415 ], [ 449522.942109437659383, 8748501.370467012748122 ], [ 449524.261557715944946, 8748507.989232026040554 ], [ 449525.729349519126117, 8748514.928019121289253 ], [ 449527.361986150033772, 8748521.896922964602709 ], [ 449529.159828964620829, 8748528.805713700130582 ], [ 449531.171923917718232, 8748535.624392235651612 ], [ 449533.315764747560024, 8748542.56325476616621 ], [ 449535.542265483178198, 8748549.4021763689816 ], [ 449538.049241479486227, 8748556.231037339195609 ], [ 449540.457007359713316, 8748562.999919001013041 ], [ 449542.774265214800835, 8748569.588749162852764 ], [ 449545.000687598250806, 8748576.617529457435012 ], [ 449546.039841781370342, 8748581.966541910544038 ], [ 449546.344816088676453, 8748584.126251272857189 ], [ 449546.616967939771712, 8748586.545763274654746 ], [ 449546.91371831856668, 8748590.93501247651875 ], [ 449546.922004410065711, 8748597.553799921646714 ], [ 449546.476839520968497, 8748604.532569468021393 ], [ 449545.083329730667174, 8748611.801426904276013 ], [ 449543.442271306179464, 8748618.410303657874465 ], [ 449541.570439892821014, 8748624.929247844964266 ], [ 449539.607716803438962, 8748631.577975261956453 ], [ 449537.628531642258167, 8748638.147061435505748 ], [ 449536.103016230277717, 8748644.355834133923054 ], [ 449535.163068862631917, 8748650.434833105653524 ], [ 449535.303136344067752, 8748661.282935839146376 ], [ 449536.391595158725977, 8748666.302066288888454 ], [ 449538.123459659516811, 8748671.261288302019238 ], [ 449540.201502003706992, 8748675.310572136193514 ], [ 449542.584673983976245, 8748679.080027842894197 ], [ 449545.066795337945223, 8748681.559655321761966 ], [ 449548.464258697815239, 8748685.088996959850192 ], [ 449551.449362030252814, 8748687.838452987372875 ], [ 449556.273444571532309, 8748691.997684882953763 ], [ 449561.427169516682625, 8748696.316999722272158 ], [ 449566.59762822277844, 8748701.096227560192347 ], [ 449571.702151046134531, 8748706.235276388004422 ], [ 449576.649827309884131, 8748712.014313612133265 ], [ 449579.527736705727875, 8748716.233710756525397 ], [ 449580.962522028014064, 8748718.323332987725735 ], [ 449582.801353615708649, 8748721.482647575438023 ], [ 449586.157693983986974, 8748726.591725151985884 ], [ 449588.961415243335068, 8748732.110940406098962 ], [ 449591.146580034866929, 8748736.400119556114078 ], [ 449593.777201375924051, 8748742.969094142317772 ], [ 449596.176824602298439, 8748749.797778720036149 ], [ 449597.496198560111225, 8748753.377124257385731 ], [ 449599.978229365311563, 8748760.265981812030077 ], [ 449602.476851982064545, 8748767.01487559825182 ], [ 449604.876608748920262, 8748773.62362296693027 ], [ 449607.284588675014675, 8748779.932720983400941 ], [ 449609.906835058704019, 8748786.281633451581001 ], [ 449612.44670151360333, 8748792.830558663234115 ], [ 449614.813231870532036, 8748799.129417333751917 ], [ 449619.587991438806057, 8748810.617454927414656 ], [ 449625.401424331590533, 8748820.735765192657709 ], [ 449628.947400760836899, 8748825.874771567061543 ], [ 449632.567320042289793, 8748831.043860591948032 ], [ 449636.162871533073485, 8748836.303030407056212 ], [ 449639.601566353812814, 8748841.242275383323431 ], [ 449643.370035278610885, 8748846.121334722265601 ], [ 449647.649768810719252, 8748851.21052273735404 ], [ 449652.177126484923065, 8748857.329457262530923 ], [ 449656.209477766416967, 8748863.448382886126637 ], [ 449664.843181177973747, 8748876.516122670844197 ], [ 449673.485241456888616, 8748889.893929161131382 ], [ 449681.310954071581364, 8748901.381798598915339 ], [ 449687.949159450829029, 8748910.640339523553848 ], [ 449693.729629260487854, 8748917.609035322442651 ], [ 449697.9353381479159, 8748921.41850863955915 ], [ 449704.771522925235331, 8748926.937443112954497 ], [ 449713.710334966890514, 8748932.98659116961062 ], [ 449721.222747643478215, 8748938.675439292564988 ], [ 449729.650363879278302, 8748945.304301954805851 ], [ 449734.795922353863716, 8748951.313290443271399 ], [ 449735.200069156475365, 8748952.073117550462484 ], [ 450421.212186323478818, 8748731.380961259827018 ], [ 450264.847162878140807, 8748416.185005379840732 ], [ 450252.337648144923151, 8748017.313297962769866 ], [ 450284.47319280076772, 8747719.784296633675694 ], [ 450134.58159277588129, 8747707.296405091881752 ], [ 449984.450573621317744, 8747694.038702126592398 ], [ 450027.223871673457325, 8747433.373335031792521 ], [ 450091.907199999317527, 8746592.877299999818206 ], [ 450095.791225732304156, 8746568.89143605157733 ], [ 450254.061144749633968, 8745508.643055470660329 ], [ 450289.140600010752678, 8745522.490600001066923 ], [ 450450.502800000831485, 8745607.306099999696016 ], [ 450529.633700006641448, 8745644.829700006172061 ], [ 450743.730500001460314, 8744497.096300004050136 ], [ 450794.469600009731948, 8743886.310900000855327 ], [ 450210.801400006748736, 8743630.294800003990531 ], [ 450272.92850000411272, 8743343.523900009691715 ], [ 449964.552500005811453, 8743324.477100007236004 ], [ 449950.542100007645786, 8743427.459500001743436 ], [ 449742.300100011751056, 8743412.562100000679493 ], [ 449756.920600003562868, 8743308.109900003299117 ], [ 449328.636100001633167, 8743273.715800004079938 ], [ 448567.731700002215803, 8743180.671800009906292 ], [ 448715.100100006908178, 8742195.410500008612871 ], [ 448698.962611253373325, 8742187.615967243909836 ], [ 448685.402688295580447, 8742178.024802226573229 ], [ 448671.842765345238149, 8742165.45706875808537 ], [ 448660.928681021556258, 8742157.18882305547595 ], [ 448650.345326514914632, 8742146.936198385432363 ], [ 448641.415621155872941, 8742137.345033368095756 ], [ 448631.162996483966708, 8742127.753868348896503 ], [ 448618.264533186331391, 8742120.477812135592103 ], [ 448601.066582123748958, 8742113.532485745847225 ], [ 448582.214981923811138, 8742107.579348837956786 ], [ 448564.355571203865111, 8742102.618401419371367 ], [ 448551.126378077082336, 8742099.972562788054347 ], [ 448536.574265642091632, 8742102.618401419371367 ], [ 448522.022153205238283, 8742107.579348837956786 ], [ 448506.80858110729605, 8742116.178324367851019 ], [ 448491.264279187656939, 8742125.438759556040168 ], [ 448479.358005374670029, 8742135.029924577102065 ], [ 448466.79027190618217, 8742144.621089586988091 ], [ 448456.537647234275937, 8742152.558605464175344 ], [ 448443.969913765788078, 8742160.826851164922118 ], [ 448429.80144792702049, 8742167.983844649046659 ], [ 448418.05392443202436, 8742173.540105761960149 ], [ 448407.258902840316296, 8742177.694072403013706 ], [ 448395.876505073159933, 8742180.604494890198112 ], [ 448383.335229990072548, 8742181.874497428536415 ], [ 448370.476454274728894, 8742182.826999336481094 ], [ 448359.135133161209524, 8742183.214548546820879 ], [ 448346.395420182496309, 8742182.59939106926322 ], [ 448332.495440809987485, 8742180.511890538036823 ], [ 448317.73166127782315, 8742177.813135139644146 ], [ 448300.110376037657261, 8742176.384382283315063 ], [ 448281.133098498918116, 8742175.689849648624659 ], [ 448262.347644260153174, 8742175.689849648624659 ], [ 448247.530947962775826, 8742175.425265783444047 ], [ 448229.23107127007097, 8742176.242763767018914 ], [ 448214.239749622531235, 8742175.499283110722899 ], [ 448199.279670898802578, 8742172.938177477568388 ], [ 448189.754651849158108, 8742171.244840757921338 ], [ 448175.784623910672963, 8742167.858167318627238 ], [ 448166.259604862891138, 8742164.894828056916595 ], [ 448155.887917451560497, 8742162.143155889585614 ], [ 448146.151231311261654, 8742160.026484990492463 ], [ 448132.181203367188573, 8742158.333148270845413 ], [ 448116.517838709056377, 8742157.486479906365275 ], [ 448097.428113024681807, 8742159.351796135306358 ], [ 448082.39974963478744, 8742163.373470844700933 ], [ 448062.291376087814569, 8742172.263488629832864 ], [ 448044.299673433415592, 8742179.248502599075437 ], [ 448024.614634060300887, 8742184.540179848670959 ], [ 448003.871259240433574, 8742187.503519114106894 ], [ 447985.456222410313785, 8742187.080184936523438 ], [ 447965.559515944682062, 8742186.233516570180655 ], [ 447946.086143668740988, 8742184.963514033704996 ], [ 447927.671106836758554, 8742182.000174771994352 ], [ 447907.986067467369139, 8742177.76683297380805 ], [ 447887.87769391387701, 8742172.6868228148669 ], [ 447869.67432417254895, 8742167.60681265220046 ], [ 447849.714624709449708, 8742161.276842165738344 ], [ 447832.516673646867275, 8742155.284194070845842 ], [ 447814.818659083917737, 8742146.924225961789489 ], [ 447800.284736785106361, 8742136.439539201557636 ], [ 447785.507992648519576, 8742123.433654854074121 ], [ 447771.381419252604246, 8742104.313061060383916 ], [ 447758.2845180593431, 8742087.247401934117079 ], [ 447744.790741068311036, 8742071.372370176017284 ], [ 447733.678218845278025, 8742058.275468982756138 ], [ 447720.97819344047457, 8742045.575443578884006 ], [ 447709.468795423395932, 8742031.68479079939425 ], [ 447697.562521611340344, 8742018.191013805568218 ], [ 447682.481241444125772, 8742004.697236819192767 ], [ 447669.384340251795948, 8741992.394087214022875 ], [ 447653.150797370821238, 8741982.85848481208086 ], [ 447635.476595351472497, 8741974.854822970926762 ], [ 447615.174193636514246, 8741966.855570860207081 ], [ 447593.96737159229815, 8741961.000589473173022 ], [ 447589.266936277039349, 8741960.710731171071529 ], [ 447583.032911770045757, 8741960.950763920322061 ], [ 447578.942630064673722, 8741961.100573308765888 ], [ 447570.927360317669809, 8741961.400685215368867 ], [ 447563.423391598276794, 8741961.6806317307055 ], [ 447561.526702810078859, 8741962.010550785809755 ], [ 447553.346498910337687, 8741963.740148292854428 ], [ 447547.90385895781219, 8741964.810149744153023 ], [ 447534.363422180525959, 8741966.929719110950828 ], [ 447530.347715731710196, 8741967.769426289945841 ], [ 447521.458121044561267, 8741969.489215763285756 ], [ 447517.227885949425399, 8741970.2791379224509 ], [ 447515.224156867712736, 8741970.678982874378562 ], [ 447510.87837184406817, 8741971.538929294794798 ], [ 447502.442421310581267, 8741972.608718326315284 ], [ 447495.598072594031692, 8741973.168617652729154 ], [ 447490.411046530120075, 8741973.458468575030565 ], [ 447485.554000631906092, 8741973.918380480259657 ], [ 447480.41668856702745, 8741974.428471384570003 ], [ 447475.600976668298244, 8741974.898402243852615 ], [ 447468.352449020370841, 8741975.818107293918729 ], [ 447461.870979153551161, 8741976.57797179184854 ], [ 447456.139792249538004, 8741977.687839856371284 ], [ 447450.210750367492437, 8741979.417606247588992 ], [ 447439.028839601203799, 8741983.1768160443753 ], [ 447429.553887783549726, 8741986.406314723193645 ], [ 447422.239566247910261, 8741988.705903727561235 ], [ 447417.547418466769159, 8741990.125668007880449 ], [ 447415.378776007331908, 8741990.885604150593281 ], [ 447408.592172120697796, 8741993.265128703787923 ], [ 447402.30026834551245, 8741996.094637772068381 ], [ 447396.156827549450099, 8741999.204152496531606 ], [ 447392.536551035940647, 8742001.33393993973732 ], [ 447388.660920226015151, 8742004.083198754116893 ], [ 447386.426153366453946, 8742005.502947952598333 ], [ 447382.393828500062227, 8742008.262671818956733 ], [ 447378.1304982136935, 8742011.302103579044342 ], [ 447373.44669305626303, 8742014.4614760838449 ], [ 447365.794185861945152, 8742018.830827869474888 ], [ 447357.877784791402519, 8742021.80027418024838 ], [ 447354.950355985201895, 8742022.860157839953899 ], [ 447351.709621259011328, 8742023.629918865859509 ], [ 447346.093760360963643, 8742024.599747274070978 ], [ 447340.313138558529317, 8742024.919770270586014 ], [ 447337.930128968320787, 8742024.939693965017796 ], [ 447334.013166602700949, 8742025.309698306024075 ], [ 447330.046771327033639, 8742026.209506014361978 ], [ 447323.202352604828775, 8742027.58918808400631 ], [ 447319.573982192203403, 8742028.479272840544581 ], [ 447312.383404361084104, 8742031.478554448112845 ], [ 447309.010649015195668, 8742033.298354072496295 ], [ 447305.448172282427549, 8742035.437848271802068 ], [ 447302.091906534507871, 8742037.707502759993076 ], [ 447298.900680511258543, 8742040.327187174931169 ], [ 447293.72212728485465, 8742045.156326040625572 ], [ 447289.846421683207154, 8742048.925648048520088 ], [ 447279.711667575873435, 8742058.713888723403215 ], [ 447275.943189391866326, 8742062.823191361501813 ], [ 447269.733819583430886, 8742069.21229325607419 ], [ 447265.008649172261357, 8742073.351516965776682 ], [ 447255.863625225611031, 8742080.49030889198184 ], [ 447250.742731752805412, 8742083.969720983877778 ], [ 447245.423845484852791, 8742086.969118608161807 ], [ 447240.030793964862823, 8742089.558703264221549 ], [ 447235.132626418955624, 8742091.308281959965825 ], [ 447231.133187373168766, 8742092.97808251529932 ], [ 447226.622497732751071, 8742094.897820167243481 ], [ 447221.748910654336214, 8742096.627423327416182 ], [ 447214.500554023310542, 8742098.797147607430816 ], [ 447209.643459657207131, 8742100.056933773681521 ], [ 447202.576473100110888, 8742101.876648915931582 ], [ 447197.727601525373757, 8742103.04643714055419 ], [ 447190.743109735660255, 8742104.466108174994588 ], [ 447179.701495587825775, 8742106.615790423005819 ], [ 447177.483174595050514, 8742106.995684618130326 ], [ 447173.236443384550512, 8742107.715539060533047 ], [ 447168.973051799461246, 8742108.41557183675468 ], [ 447166.647571987472475, 8742108.805349126458168 ], [ 447162.161694937385619, 8742109.385365430265665 ], [ 447157.46964402589947, 8742110.205100441351533 ], [ 447154.863753588870168, 8742110.665068058297038 ], [ 447149.586113668978214, 8742111.494882931932807 ], [ 447144.506440214812756, 8742112.164800776168704 ], [ 447142.510987100191414, 8742112.434708259999752 ], [ 447138.560957020148635, 8742113.324567995965481 ], [ 447134.44610617030412, 8742114.714403681457043 ], [ 447132.211296254768968, 8742115.494225123897195 ], [ 447127.560602368786931, 8742117.09392604790628 ], [ 447122.802453917451203, 8742118.553677355870605 ], [ 447120.658299981616437, 8742119.143677590414882 ], [ 447116.749715962447226, 8742120.433340577408671 ], [ 447112.85742290969938, 8742121.833054637536407 ], [ 447110.91953931748867, 8742122.582961501553655 ], [ 447108.676487133838236, 8742123.462950540706515 ], [ 447102.129190055653453, 8742125.722502904012799 ], [ 447097.799994003027678, 8742127.212159089744091 ], [ 447095.919725277461112, 8742127.892165856435895 ], [ 447089.578371794894338, 8742130.571700224652886 ], [ 447087.557970740832388, 8742131.471521209925413 ], [ 447083.61632118653506, 8742133.351165194064379 ], [ 447082.05776575114578, 8742134.250983124598861 ], [ 447076.697742027230561, 8742137.7603775318712 ], [ 447075.551565865054727, 8742138.750230379402637 ], [ 447070.537718574516475, 8742143.379354353994131 ], [ 447068.847324919886887, 8742144.889227267354727 ], [ 447063.973708159290254, 8742149.238492356613278 ], [ 447060.807200235314667, 8742151.737997785210609 ], [ 447055.216336137615144, 8742156.337294742465019 ], [ 447051.719960868358612, 8742159.316595681011677 ], [ 447047.093788257800043, 8742162.036142006516457 ], [ 447042.599493522197008, 8742164.055954100564122 ], [ 447038.138313729315996, 8742165.715670825913548 ], [ 447033.503937817178667, 8742167.075433060526848 ], [ 447026.577241512946784, 8742168.565050218254328 ], [ 447021.720104589127004, 8742168.925151715055108 ], [ 447017.440339386463165, 8742169.035096969455481 ], [ 447015.716973580420017, 8742169.055104710161686 ], [ 447008.386031336151063, 8742169.634986348450184 ], [ 447001.286045049317181, 8742170.814802495762706 ], [ 446998.960501192137599, 8742171.564717762172222 ], [ 446995.068251760676503, 8742173.844281122088432 ], [ 446992.850007428787649, 8742175.673941224813461 ], [ 446990.730909368023276, 8742177.913455780595541 ], [ 446987.753934873268008, 8742181.83286214992404 ], [ 446985.288217909634113, 8742186.282125264406204 ], [ 446982.822630560025573, 8742191.501227296888828 ], [ 446980.340540525503457, 8742196.410353491082788 ], [ 446977.421363164670765, 8742201.649484677240252 ], [ 446970.123485108837485, 8742209.58810855448246 ], [ 446965.241637663915753, 8742212.517533522099257 ], [ 446983.43283192999661, 8742277.076548345386982 ], [ 446985.642896487377584, 8742349.794075671583414 ], [ 446969.043179296888411, 8742547.750320807099342 ], [ 446965.810648266226053, 8742584.333813432604074 ], [ 446962.842102132737637, 8742618.078234208747745 ], [ 446957.811844238080084, 8742696.294803317636251 ], [ 446941.962613650597632, 8742869.365091061219573 ], [ 446934.301805472932756, 8742955.650338940322399 ], [ 447778.1716563180089, 8742983.415552414953709 ], [ 448143.999100002460182, 8742942.002700001001358 ], [ 448155.997400001622736, 8743252.999400006607175 ], [ 447273.617783130146563, 8743262.887714367359877 ], [ 447246.718500011600554, 8743263.887499999254942 ], [ 447245.630000008270144, 8743269.786500006914139 ], [ 447244.178700003772974, 8743275.785500012338161 ], [ 447242.513000008650124, 8743281.934400007128716 ], [ 447240.566800001077354, 8743288.313300002366304 ], [ 447238.546500003896654, 8743294.762200007215142 ], [ 447236.550900002941489, 8743301.441100006923079 ], [ 447234.827500003390014, 8743309.0098000112921 ], [ 447234.266700006090105, 8743317.168400002643466 ], [ 447235.017100008204579, 8743324.997100004926324 ], [ 447235.429400005377829, 8743326.556800007820129 ], [ 447236.855999998748302, 8743331.975900003686547 ], [ 447239.437100002542138, 8743337.754900008440018 ], [ 447242.397500003688037, 8743342.564000003039837 ], [ 447245.902200005017221, 8743346.973300002515316 ], [ 447249.687200007028878, 8743350.932600002735853 ], [ 447253.620600007474422, 8743354.562000008299947 ], [ 447257.438600001856685, 8743358.041400013491511 ], [ 447261.182400011457503, 8743361.54080000333488 ], [ 447264.852000004611909, 8743365.190199997276068 ], [ 447268.373100010678172, 8743368.969500001519918 ], [ 447271.737600011751056, 8743372.978800000622869 ], [ 447275.110300002619624, 8743377.358100006356835 ], [ 447278.54900000244379, 8743382.127300009131432 ], [ 447281.732000006362796, 8743386.636500004678965 ], [ 447284.519300009123981, 8743391.01570000872016 ], [ 447287.067300008609891, 8743395.185000002384186 ], [ 447289.277300002984703, 8743399.194300010800362 ], [ 447291.446100004017353, 8743403.383600011467934 ], [ 447293.680800006724894, 8743407.662900006398559 ], [ 447295.725900009274483, 8743411.722200008109212 ], [ 447297.721500002779067, 8743415.871500005945563 ], [ 447299.609900008887053, 8743419.940800007432699 ], [ 447301.457000005990267, 8743424.130100006237626 ], [ 447303.328900004737079, 8743428.48930000141263 ], [ 447305.29150000307709, 8743432.848600013181567 ], [ 447307.171600002795458, 8743436.817900003865361 ], [ 447308.689000004902482, 8743440.667200000956655 ], [ 447310.23100000154227, 8743444.986500006169081 ], [ 447311.88850000500679, 8743449.445700014010072 ], [ 447313.653200009837747, 8743453.865000000223517 ], [ 447315.591100011020899, 8743458.344200009480119 ], [ 447317.677300006151199, 8743462.813400002196431 ], [ 447320.060500008054078, 8743467.322700012475252 ], [ 447322.839500007219613, 8743471.721900012344122 ], [ 447325.841100001707673, 8743475.80120000243187 ], [ 447329.007700003683567, 8743479.680600002408028 ], [ 447332.528800006955862, 8743483.419900007545948 ], [ 447336.338600002229214, 8743486.879300002008677 ], [ 447340.428700005635619, 8743490.028800005093217 ], [ 447344.708500001579523, 8743492.858300007879734 ], [ 447348.922300001606345, 8743495.357900001108646 ], [ 447353.160900004208088, 8743497.647500010207295 ], [ 447357.490100004710257, 8743499.847099998965859 ], [ 447361.976100010797381, 8743501.776800002902746 ], [ 447366.255900010466576, 8743503.44649999961257 ], [ 447370.313000005669892, 8743505.016200006008148 ], [ 447374.411400006152689, 8743506.655900003388524 ], [ 447378.8561000097543, 8743508.675600009039044 ], [ 447383.333800000138581, 8743510.925200007855892 ], [ 447388.388800011016428, 8743513.464800003916025 ], [ 447393.666400013491511, 8743516.124300004914403 ], [ 447399.009900012053549, 8743518.95380000770092 ], [ 447404.435900003649294, 8743521.973300008103251 ], [ 447410.00210000667721, 8743525.112800005823374 ], [ 447415.527099998667836, 8743528.2922000028193 ], [ 447421.208800011314452, 8743531.511700013652444 ], [ 447427.096600004471838, 8743534.691100006923079 ], [ 447433.190500005148351, 8743537.720600005239248 ], [ 447438.979400000534952, 8743540.460100006312132 ], [ 447444.570300000719726, 8743543.379600001499057 ], [ 447449.996400007046759, 8743546.489100001752377 ], [ 447460.089700007811189, 8743552.418100003153086 ], [ 447464.847800004296005, 8743555.317600009962916 ], [ 447469.358500001952052, 8743558.247100008651614 ], [ 447473.671300003305078, 8743561.266600009053946 ], [ 447477.728400010615587, 8743564.296100009232759 ], [ 447481.57120000384748, 8743567.465500008314848 ], [ 447485.323200012557209, 8743570.834900006651878 ], [ 447489.06700000166893, 8743574.38429999910295 ], [ 447492.901500002481043, 8743577.853700004518032 ], [ 447496.35670000500977, 8743581.153200006112456 ], [ 447499.770600005052984, 8743584.582600001245737 ], [ 447503.341200002469122, 8743588.242000006139278 ], [ 447507.0933000119403, 8743592.031300000846386 ], [ 447510.90300000179559, 8743595.770700005814433 ], [ 447514.688000003807247, 8743599.560000006109476 ], [ 447518.431800006888807, 8743603.469400009140372 ], [ 447522.192100003361702, 8743607.708599999547005 ], [ 447526.010100004263222, 8743612.107900006696582 ], [ 447529.556000000797212, 8743616.667100002989173 ], [ 447532.986400005407631, 8743621.57630000449717 ], [ 447536.276700004003942, 8743626.825400015339255 ], [ 447542.766500005498528, 8743638.573300002142787 ], [ 447546.097900002263486, 8743644.832300005480647 ], [ 447549.627300005406141, 8743651.391100004315376 ], [ 447553.461800007149577, 8743658.020000007003546 ], [ 447557.799300003796816, 8743664.968800008296967 ], [ 447562.829500010237098, 8743671.59770000167191 ], [ 447568.222600013948977, 8743678.296500002965331 ], [ 447574.077400003559887, 8743684.785400006920099 ], [ 447579.858000006526709, 8743690.964400006458163 ], [ 447591.749100007116795, 8743703.972100008279085 ], [ 447597.917200005613267, 8743710.761000007390976 ], [ 447604.052400004118681, 8743717.529800007119775 ], [ 447609.956700008362532, 8743724.128700004890561 ], [ 447615.498200005851686, 8743730.317600000649691 ], [ 447620.660400004126132, 8743735.886700004339218 ], [ 447625.839000001549721, 8743741.335700007155538 ], [ 447631.578399998135865, 8743746.514900002628565 ], [ 447644.970200007781386, 8743754.383500013500452 ], [ 447652.44960000552237, 8743756.943100007250905 ], [ 447660.48139999806881, 8743758.412800002843142 ], [ 447668.521499998867512, 8743758.792800011113286 ], [ 447676.297700012102723, 8743758.262800004333258 ], [ 447684.222300005145371, 8743757.283000005409122 ], [ 447692.081000006757677, 8743755.303300006315112 ], [ 447699.692200008779764, 8743753.213700009509921 ], [ 447707.517900002188981, 8743751.114100001752377 ], [ 447714.898300005123019, 8743748.864500002935529 ], [ 447721.767400006763637, 8743747.164700012654066 ], [ 447733.444000003859401, 8743744.635200008749962 ], [ 447738.936000004410744, 8743744.145300008356571 ], [ 447744.337300003506243, 8743743.995300004258752 ], [ 447750.052000005729496, 8743744.425200005993247 ], [ 447756.038700003176928, 8743745.125100003555417 ], [ 447762.388300001621246, 8743746.054900005459785 ], [ 447769.232700007036328, 8743746.904800001531839 ], [ 447775.969900006428361, 8743747.834600010886788 ], [ 447783.539900011382997, 8743749.044400015845895 ], [ 447791.167700007557869, 8743750.264200003817677 ], [ 447798.778900009579957, 8743751.484000008553267 ], [ 447806.151100013405085, 8743752.693800009787083 ], [ 447811.931700004264712, 8743754.083600006997585 ], [ 447813.72110001090914, 8743754.573500005528331 ], [ 447818.553399998694658, 8743756.173200003802776 ], [ 447820.375799998641014, 8743756.823100004345179 ], [ 447824.969000001437962, 8743758.652800008654594 ], [ 447826.428500011563301, 8743759.292700009420514 ], [ 447831.582400008104742, 8743761.722200008109212 ], [ 447836.365300007164478, 8743764.49180000461638 ], [ 447837.519700008444488, 8743765.221600005403161 ], [ 447842.137600008398294, 8743768.391100002452731 ], [ 447847.101800005882978, 8743772.340400004759431 ], [ 447851.678500009700656, 8743776.249800004065037 ], [ 447851.744500016793609, 8743776.309700004756451 ], [ 447855.339800008572638, 8743779.779200002551079 ], [ 447856.049000012688339, 8743780.539000010117888 ], [ 447858.885700009763241, 8743783.858500007539988 ], [ 447859.380499999970198, 8743784.488300006836653 ], [ 447862.373900005593896, 8743788.807600006461143 ], [ 447865.622900004498661, 8743794.096700007095933 ], [ 447868.847200006246567, 8743799.795700008049607 ], [ 447872.046700000762939, 8743805.89470000565052 ], [ 447875.262700005434453, 8743812.443600002676249 ], [ 447878.536500005982816, 8743819.082399999722838 ], [ 447881.670000008307397, 8743825.561300011351705 ], [ 447884.556200001388788, 8743831.660300003364682 ], [ 447887.153800006024539, 8743837.619200007990003 ], [ 447889.602900008670986, 8743843.258300010114908 ], [ 447891.681000006385148, 8743848.407400006428361 ], [ 447893.420900009572506, 8743853.286600003018975 ], [ 447895.086700005456805, 8743858.345700005069375 ], [ 447896.801900004036725, 8743863.754800008609891 ], [ 447898.616000006906688, 8743869.073899999260902 ], [ 447900.166300002485514, 8743874.053000008687377 ], [ 447902.574200005270541, 8743882.451600005850196 ], [ 447904.965600003488362, 8743900.358500005677342 ], [ 447905.105800005607307, 8743914.896000005304813 ], [ 447905.048100005835295, 8743916.14580000191927 ], [ 447904.380200006067753, 8743922.174800004810095 ], [ 447903.563800011761487, 8743928.65370000526309 ], [ 447902.467000006698072, 8743935.112500004470348 ], [ 447901.15590000897646, 8743941.811400007456541 ], [ 447899.852984616532922, 8743948.590191297233105 ], [ 447898.566600004211068, 8743955.249100003391504 ], [ 447890.938800003379583, 8744004.730600010603666 ], [ 447889.891500009223819, 8744013.779100008308887 ], [ 447888.753600011579692, 8744022.79750001244247 ], [ 447887.673300001770258, 8744031.706000002101064 ], [ 447886.329200003296137, 8744040.664500018581748 ], [ 447885.08400000911206, 8744050.102900002151728 ], [ 447884.465500002726912, 8744054.732100002467632 ], [ 447883.814100003801286, 8744059.661200001835823 ], [ 447883.467700012028217, 8744062.080800013616681 ], [ 447883.063700002618134, 8744064.410400008782744 ], [ 447882.288500005379319, 8744069.379500003531575 ], [ 447880.457800008356571, 8744079.487800005823374 ], [ 447878.759100002236664, 8744089.956000009551644 ], [ 447877.060400013811886, 8744100.384200002998114 ], [ 447875.336900001391768, 8744110.9324000030756 ], [ 447873.69590001180768, 8744121.500600004568696 ], [ 447872.252800011076033, 8744132.078800002112985 ], [ 447870.727300005964935, 8744142.477000001817942 ], [ 447869.053299999795854, 8744152.975199999287724 ], [ 447867.404100004583597, 8744163.173500005155802 ], [ 447865.820800006389618, 8744173.211800009012222 ], [ 447864.14680000487715, 8744183.120099999010563 ], [ 447862.241900001652539, 8744193.06840000115335 ], [ 447860.221600004471838, 8744203.106600007042289 ], [ 447858.217799997888505, 8744213.234900007024407 ], [ 447856.032500005327165, 8744223.363200008869171 ], [ 447853.690600004047155, 8744233.52140000090003 ], [ 447851.348700002767146, 8744243.929700015112758 ], [ 447849.072700005024672, 8744254.297900006175041 ], [ 447846.871000004000962, 8744264.826100002974272 ], [ 447845.172200001776218, 8744275.414300017058849 ], [ 447843.696200010366738, 8744285.832500007003546 ], [ 447842.607700001448393, 8744296.330700002610683 ], [ 447841.741800003685057, 8744306.818900009617209 ], [ 447841.172800006344914, 8744317.22710001654923 ], [ 447840.752200006507337, 8744327.625300006940961 ], [ 447840.587300003506243, 8744338.053500007838011 ], [ 447840.537800001911819, 8744348.061800003051758 ], [ 447840.686300005763769, 8744357.990100003778934 ], [ 447840.999600005336106, 8744367.548500008881092 ], [ 447841.271800003945827, 8744376.966900004073977 ], [ 447841.659300008788705, 8744386.175300007686019 ], [ 447842.08809999935329, 8744395.173700010403991 ], [ 447842.31080000847578, 8744404.08220000565052 ], [ 447842.516900006681681, 8744413.060700001195073 ], [ 447843.020000004209578, 8744422.019100008532405 ], [ 447843.762100011110306, 8744430.867600005120039 ], [ 447844.801100003533065, 8744439.446200001984835 ], [ 447845.691700007766485, 8744447.594800004735589 ], [ 447846.417400000616908, 8744455.763400005176663 ], [ 447847.151300001889467, 8744463.982000002637506 ], [ 447848.041900001466274, 8744472.2905000038445 ], [ 447848.916000006720424, 8744480.529100006446242 ], [ 447849.781900004483759, 8744488.507800001651049 ], [ 447850.49100000411272, 8744496.096500007435679 ], [ 447851.076500011608005, 8744503.775100013241172 ], [ 447851.843400006182492, 8744511.443800006061792 ], [ 447852.387700010091066, 8744519.06250000372529 ], [ 447853.047400006093085, 8744526.821200009435415 ], [ 447853.641100008040667, 8744534.439900005236268 ], [ 447854.333800006657839, 8744542.078600006178021 ], [ 447854.886300002224743, 8744549.537300009280443 ], [ 447855.232600007206202, 8744557.126000005751848 ], [ 447855.826400011777878, 8744565.094600008800626 ], [ 447856.57680000923574, 8744573.013300007209182 ], [ 447857.187000006437302, 8744580.951900007203221 ], [ 447857.789000009186566, 8744589.080500004813075 ], [ 447858.432200003415346, 8744597.009200008586049 ], [ 447858.894000004045665, 8744604.807800011709332 ], [ 447859.520700002089143, 8744612.786500003188848 ], [ 447860.502000016160309, 8744620.635100012645125 ], [ 447861.491500000469387, 8744628.043900012969971 ], [ 447862.266699999570847, 8744635.182600002735853 ], [ 447862.992300000973046, 8744642.591400006785989 ], [ 447864.072600004263222, 8744650.130100011825562 ], [ 447864.872500009834766, 8744657.528800008818507 ], [ 447865.936200005933642, 8744665.267500007525086 ], [ 447868.236900010146201, 8744680.474899999797344 ], [ 447869.61410001013428, 8744688.273500002920628 ], [ 447870.982900007627904, 8744695.67230000346899 ], [ 447872.186900007538497, 8744702.940999999642372 ], [ 447873.341399999335408, 8744710.239800004288554 ], [ 447874.157700008712709, 8744717.328600000590086 ], [ 447874.990600005723536, 8744724.597300002351403 ], [ 447875.963700004853308, 8744731.906100008636713 ], [ 447877.093400009907782, 8744739.024800000712276 ], [ 447878.091200003400445, 8744744.653899997472763 ], [ 447357.448900012299418, 8744697.151999998837709 ], [ 447150.971500003710389, 8744988.462000004947186 ], [ 447350.571600002236664, 8745028.475300004705787 ], [ 447360.780400003306568, 8745412.279500007629395 ], [ 446888.007500002160668, 8745345.610900005325675 ], [ 446848.293699999339879, 8745759.380100008100271 ], [ 446674.331200012005866, 8746284.260200008749962 ], [ 446621.69550000410527, 8746280.230900000780821 ], [ 446549.219400010071695, 8746274.51180000603199 ], [ 446473.75810000859201, 8746268.982800003141165 ], [ 446420.800800010561943, 8746265.243400007486343 ], [ 446370.09470000769943, 8746259.884300008416176 ], [ 446352.777700012549758, 8746258.434600003063679 ], [ 446331.419900003820658, 8746257.274800010025501 ], [ 446330.430400004610419, 8746267.413000008091331 ], [ 446214.851182765327394, 8747456.299387948587537 ], [ 446023.439700015820563, 8748138.852500004693866 ], [ 446021.600800005719066, 8748148.720800006762147 ], [ 446213.210200013592839, 8748167.587600003927946 ], [ 446235.021500002592802, 8748168.757400007918477 ], [ 446264.056500003673136, 8748172.366700008511543 ], [ 446288.259100006893277, 8748174.596400005742908 ], [ 446313.278200002387166, 8748176.99600000679493 ], [ 446339.550700005143881, 8748178.545700006186962 ], [ 446433.120700001716614, 8748188.953900007531047 ], [ 446517.388900000602007, 8748196.212700005620718 ], [ 446793.671936523169279, 8748225.737237688153982 ], [ 446814.352200001478195, 8748227.947200002148747 ], [ 446882.017672680318356, 8748235.825597392395139 ], [ 446917.743400000967085, 8748239.985200002789497 ], [ 446922.880800001323223, 8748240.455100003629923 ], [ 446923.243614797480404, 8748235.425903698429465 ], [ 447114.193400003015995, 8748251.113300010561943 ], [ 446861.13300000037998, 8749547.291200002655387 ], [ 447372.737400009296834, 8749638.03570001013577 ], [ 447837.841300000436604, 8749490.121000004932284 ], [ 448561.819100002758205, 8749057.745099999010563 ], [ 448578.319900006055832, 8748343.037500008940697 ] ] ] ] } }
]
}
